{
  "type": "FeatureCollection",
  "features": [
    {
      "type": "Feature",
      "properties": {
        "norad_id": 34540,
        "name": "IRIDIUM 33 DEB",
        "group": "iridium-33-debris",
        "lat": 76.36918396747483,
        "lon": -32.67436095997823,
        "alt_km": 642.7449081228251,
        "timestamp": "2025-12-03T08:58:46.387537+00:00",
        "meta_object_name": "IRIDIUM 33 DEB",
        "meta_object_id": "1997-051JH",
        "meta_epoch": "2025-12-02T23:06:26.517024",
        "meta_mean_motion": 14.74974705,
        "meta_eccentricity": 0.0014764,
        "meta_inclination": 86.3092,
        "meta_ra_of_asc_node": 312.0761,
        "meta_arg_of_pericenter": 195.1731,
        "meta_mean_anomaly": 219.1113,
        "meta_ephemeris_type": 0,
        "meta_classification_type": "U",
        "meta_norad_cat_id": 34540,
        "meta_element_set_no": 999,
        "meta_rev_at_epoch": 88877,
        "meta_bstar": 0.0022389,
        "meta_mean_motion_dot": 0.00015115,
        "meta_mean_motion_ddot": 0,
        "tle_line1": "1 34540U 97051JH  25336.96280691  .00015115  00000+0  22389-2 0  9996",
        "tle_line2": "2 34540  86.3092 312.0761 0014764 195.1731 219.1113 14.74974705888779"
      },
      "geometry": {
        "type": "Point",
        "coordinates": [
          -32.67436095997823,
          76.36918396747483
        ]
      }
    },
    {
      "type": "Feature",
      "properties": {
        "norad_id": 34648,
        "name": "IRIDIUM 33 DEB",
        "group": "iridium-33-debris",
        "lat": -33.27345638364177,
        "lon": 108.09972931416678,
        "alt_km": 915.9542263610438,
        "timestamp": "2025-12-03T08:58:46.387548+00:00",
        "meta_object_name": "IRIDIUM 33 DEB",
        "meta_object_id": "1997-051JZ",
        "meta_epoch": "2025-12-01T03:11:38.418720",
        "meta_mean_motion": 14.1087899,
        "meta_eccentricity": 0.01868529,
        "meta_inclination": 86.3903,
        "meta_ra_of_asc_node": 286.6295,
        "meta_arg_of_pericenter": 334.6513,
        "meta_mean_anomaly": 24.5588,
        "meta_ephemeris_type": 0,
        "meta_classification_type": "U",
        "meta_norad_cat_id": 34648,
        "meta_element_set_no": 999,
        "meta_rev_at_epoch": 84797,
        "meta_bstar": 0.0079356223,
        "meta_mean_motion_dot": 0.00016788,
        "meta_mean_motion_ddot": 0,
        "tle_line1": "1 34648U 97051JZ  25335.13308355  .00016788  00000+0  79356-2 0  9994",
        "tle_line2": "2 34648  86.3903 286.6295 0186852 334.6513  24.5588 14.10878990847973"
      },
      "geometry": {
        "type": "Point",
        "coordinates": [
          108.09972931416678,
          -33.27345638364177
        ]
      }
    },
    {
      "type": "Feature",
      "properties": {
        "norad_id": 34651,
        "name": "IRIDIUM 33 DEB",
        "group": "iridium-33-debris",
        "lat": 34.437442862016745,
        "lon": -37.996131293186764,
        "alt_km": 800.0651623117528,
        "timestamp": "2025-12-03T08:58:46.387559+00:00",
        "meta_object_name": "IRIDIUM 33 DEB",
        "meta_object_id": "1997-051KC",
        "meta_epoch": "2025-12-02T05:19:54.206688",
        "meta_mean_motion": 14.25531146,
        "meta_eccentricity": 0.0141862,
        "meta_inclination": 86.2826,
        "meta_ra_of_asc_node": 145.0488,
        "meta_arg_of_pericenter": 237.4272,
        "meta_mean_anomaly": 121.3155,
        "meta_ephemeris_type": 0,
        "meta_classification_type": "U",
        "meta_norad_cat_id": 34651,
        "meta_element_set_no": 999,
        "meta_rev_at_epoch": 85746,
        "meta_bstar": 0.0036308,
        "meta_mean_motion_dot": 9.56e-05,
        "meta_mean_motion_ddot": 0,
        "tle_line1": "1 34651U 97051KC  25336.22215517  .00009560  00000+0  36308-2 0  9996",
        "tle_line2": "2 34651  86.2826 145.0488 0141862 237.4272 121.3155 14.25531146857462"
      },
      "geometry": {
        "type": "Point",
        "coordinates": [
          -37.996131293186764,
          34.437442862016745
        ]
      }
    },
    {
      "type": "Feature",
      "properties": {
        "norad_id": 34652,
        "name": "IRIDIUM 33 DEB",
        "group": "iridium-33-debris",
        "lat": 56.25555215447902,
        "lon": -10.316146525386088,
        "alt_km": 679.8664236445802,
        "timestamp": "2025-12-03T08:58:46.387569+00:00",
        "meta_object_name": "IRIDIUM 33 DEB",
        "meta_object_id": "1997-051KD",
        "meta_epoch": "2025-12-02T12:03:44.445600",
        "meta_mean_motion": 14.61898676,
        "meta_eccentricity": 0.00270627,
        "meta_inclination": 86.3312,
        "meta_ra_of_asc_node": 344.5601,
        "meta_arg_of_pericenter": 334.9096,
        "meta_mean_anomaly": 177.4047,
        "meta_ephemeris_type": 0,
        "meta_classification_type": "U",
        "meta_norad_cat_id": 34652,
        "meta_element_set_no": 999,
        "meta_rev_at_epoch": 88334,
        "meta_bstar": 0.0012168376,
        "meta_mean_motion_dot": 6.139e-05,
        "meta_mean_motion_ddot": 0,
        "tle_line1": "1 34652U 97051KD  25336.50259775  .00006139  00000+0  12168-2 0  9999",
        "tle_line2": "2 34652  86.3312 344.5601 0027062 334.9096 177.4047 14.61898676883341"
      },
      "geometry": {
        "type": "Point",
        "coordinates": [
          -10.316146525386088,
          56.25555215447902
        ]
      }
    },
    {
      "type": "Feature",
      "properties": {
        "norad_id": 34690,
        "name": "IRIDIUM 33 DEB",
        "group": "iridium-33-debris",
        "lat": 27.685903681518514,
        "lon": -140.84233042902608,
        "alt_km": 708.9614714574127,
        "timestamp": "2025-12-03T08:58:46.387580+00:00",
        "meta_object_name": "IRIDIUM 33 DEB",
        "meta_object_id": "1997-051KM",
        "meta_epoch": "2025-12-02T11:05:34.177632",
        "meta_mean_motion": 14.5503094,
        "meta_eccentricity": 0.00118516,
        "meta_inclination": 86.3794,
        "meta_ra_of_asc_node": 41.4576,
        "meta_arg_of_pericenter": 59.8454,
        "meta_mean_anomaly": 358.3612,
        "meta_ephemeris_type": 0,
        "meta_classification_type": "U",
        "meta_norad_cat_id": 34690,
        "meta_element_set_no": 999,
        "meta_rev_at_epoch": 87945,
        "meta_bstar": 0.00062693819,
        "meta_mean_motion_dot": 2.723e-05,
        "meta_mean_motion_ddot": 0,
        "tle_line1": "1 34690U 97051KM  25336.46220113  .00002723  00000+0  62694-3 0  9995",
        "tle_line2": "2 34690  86.3794  41.4576 0011851  59.8454 358.3612 14.55030940879451"
      },
      "geometry": {
        "type": "Point",
        "coordinates": [
          -140.84233042902608,
          27.685903681518514
        ]
      }
    },
    {
      "type": "Feature",
      "properties": {
        "norad_id": 34693,
        "name": "IRIDIUM 33 DEB",
        "group": "iridium-33-debris",
        "lat": -37.41729646208,
        "lon": -54.36847126496124,
        "alt_km": 501.00857804806947,
        "timestamp": "2025-12-03T08:58:46.387590+00:00",
        "meta_object_name": "IRIDIUM 33 DEB",
        "meta_object_id": "1997-051KQ",
        "meta_epoch": "2025-12-02T22:20:48.476832",
        "meta_mean_motion": 15.24488571,
        "meta_eccentricity": 0.0016088,
        "meta_inclination": 86.3048,
        "meta_ra_of_asc_node": 308.6845,
        "meta_arg_of_pericenter": 67.5745,
        "meta_mean_anomaly": 345.3417,
        "meta_ephemeris_type": 0,
        "meta_classification_type": "U",
        "meta_norad_cat_id": 34693,
        "meta_element_set_no": 999,
        "meta_rev_at_epoch": 88765,
        "meta_bstar": 0.0056535,
        "meta_mean_motion_dot": 0.00141805,
        "meta_mean_motion_ddot": 0,
        "tle_line1": "1 34693U 97051KQ  25336.93111663  .00141805  00000+0  56535-2 0  9990",
        "tle_line2": "2 34693  86.3048 308.6845 0016088  67.5745 345.3417 15.24488571887653"
      },
      "geometry": {
        "type": "Point",
        "coordinates": [
          -54.36847126496124,
          -37.41729646208
        ]
      }
    },
    {
      "type": "Feature",
      "properties": {
        "norad_id": 34696,
        "name": "IRIDIUM 33 DEB",
        "group": "iridium-33-debris",
        "lat": -33.1374751695633,
        "lon": 29.380587406450307,
        "alt_km": 717.9253185582274,
        "timestamp": "2025-12-03T08:58:46.387600+00:00",
        "meta_object_name": "IRIDIUM 33 DEB",
        "meta_object_id": "1997-051KT",
        "meta_epoch": "2025-12-02T22:27:23.457888",
        "meta_mean_motion": 14.64186349,
        "meta_eccentricity": 0.0074931,
        "meta_inclination": 86.1858,
        "meta_ra_of_asc_node": 32.0803,
        "meta_arg_of_pericenter": 200.6573,
        "meta_mean_anomaly": 335.8637,
        "meta_ephemeris_type": 0,
        "meta_classification_type": "U",
        "meta_norad_cat_id": 34696,
        "meta_element_set_no": 999,
        "meta_rev_at_epoch": 86529,
        "meta_bstar": 0.0077467,
        "meta_mean_motion_dot": 0.0004269,
        "meta_mean_motion_ddot": 0,
        "tle_line1": "1 34696U 97051KT  25336.93568817  .00042690  00000+0  77467-2 0  9999",
        "tle_line2": "2 34696  86.1858  32.0803 0074931 200.6573 335.8637 14.64186349865290"
      },
      "geometry": {
        "type": "Point",
        "coordinates": [
          29.380587406450307,
          -33.1374751695633
        ]
      }
    }
  ]
}